{"type": "FeatureCollection", "features": [ {"type": "Feature", "properties": {"norad_id": 44804, "name": "CARTOSAT-3", "group": "resource", "lat": -34.10608358483255, "lon": -126.8707376658014, "alt_km": 523.6220735137449, "timestamp": "2025-12-24T18:55:55.714914+00:00", "meta": {"OBJECT_NAME": "CARTOSAT-3", "OBJECT_ID": "2019-081A", "EPOCH": "2025-12-24T06:55:37.407360", "MEAN_MOTION": 15.19246362, "ECCENTRICITY": 0.0013674, "INCLINATION": 97.4565, "RA_OF_ASC_NODE": 57.724, "ARG_OF_PERICENTER": 47.3431, "MEAN_ANOMALY": 312.8953, "EPHEMERIS_TYPE": 0, "CLASSIFICATION_TYPE": "U", "NORAD_CAT_ID": 44804, "ELEMENT_SET_NO": 999, "REV_AT_EPOCH": 33691, "BSTAR": 0.00018102083, "MEAN_MOTION_DOT": 3.755e-05, "MEAN_MOTION_DDOT": 0}, "tle": {"line1": "1 44804U 19081A   25358.28862740  .00003755  00000+0  18102-3 0  9993", "line2": "2 44804  97.4565  57.7240 0013674  47.3431 312.8953 15.19246362336918"}}, "geometry": {"type": "Point", "coordinates": [-126.8707376658014, -34.10608358483255]}}, {"type": "Feature", "properties": {"norad_id": 44819, "name": "GAOFEN-12 01", "group": "resource", "lat": 82.13077749648676, "lon": -78.64516373552648, "alt_km": 619.7575648130878, "timestamp": "2025-12-24T18:55:55.714924+00:00", "meta": {"OBJECT_NAME": "GAOFEN-12 01", "OBJECT_ID": "2019-082A", "EPOCH": "2025-12-24T07:10:40.863648", "MEAN_MOTION": 14.8067024, "ECCENTRICITY": 0.00021461, "INCLINATION": 97.8125, "RA_OF_ASC_NODE": 4.2766, "ARG_OF_PERICENTER": 181.3088, "MEAN_ANOMALY": 178.812, "EPHEMERIS_TYPE": 0, "CLASSIFICATION_TYPE": "U", "NORAD_CAT_ID": 44819, "ELEMENT_SET_NO": 999, "REV_AT_EPOCH": 32821, "BSTAR": 6.9547666e-05, "MEAN_MOTION_DOT": 4.84e-06, "MEAN_MOTION_DDOT": 0}, "tle": {"line1": "1 44819U 19082A   25358.29908407  .00000484  00000+0  69548-4 0  9999", "line2": "2 44819  97.8125   4.2766 0002146 181.3088 178.8120 14.80670240328212"}}, "geometry": {"type": "Point", "coordinates": [-78.64516373552648, 82.13077749648676]}}, {"type": "Feature", "properties": {"norad_id": 44873, "name": "CSG-1", "group": "resource", "lat": -80.49706704955096, "lon": -55.904405222068654, "alt_km": 630.8999077587096, "timestamp": "2025-12-24T18:55:55.714934+00:00", "meta": {"OBJECT_NAME": "CSG-1", "OBJECT_ID": "2019-092A", "EPOCH": "2025-12-24T06:23:59.424864", "MEAN_MOTION": 14.82159281, "ECCENTRICITY": 0.00014751, "INCLINATION": 97.8805, "RA_OF_ASC_NODE": 179.4172, "ARG_OF_PERICENTER": 85.5043, "MEAN_ANOMALY": 274.6338, "EPHEMERIS_TYPE": 0, "CLASSIFICATION_TYPE": "U", "NORAD_CAT_ID": 44873, "ELEMENT_SET_NO": 999, "REV_AT_EPOCH": 32556, "BSTAR": 6.8227097e-05, "MEAN_MOTION_DOT": 4.91e-06, "MEAN_MOTION_DDOT": 0}, "tle": {"line1": "1 44873U 19092A   25358.26666001  .00000491  00000+0  68227-4 0  9999", "line2": "2 44873  97.8805 179.4172 0001475  85.5043 274.6338 14.82159281325563"}}, "geometry": {"type": "Point", "coordinates": [-55.904405222068654, -80.49706704955096]}}, {"type": "Feature", "properties": {"norad_id": 46277, "name": "NEMO-HD", "group": "resource", "lat": 66.52771925441681, "lon": 40.761739273889674, "alt_km": 437.2399422767767, "timestamp": "2025-12-24T18:55:55.714945+00:00", "meta": {"OBJECT_NAME": "NEMO-HD", "OBJECT_ID": "2020-061F", "EPOCH": "2025-12-24T06:10:07.257216", "MEAN_MOTION": 15.40557215, "ECCENTRICITY": 0.00011262, "INCLINATION": 97.219, "RA_OF_ASC_NODE": 57.2087, "ARG_OF_PERICENTER": 52.7836, "MEAN_ANOMALY": 307.3513, "EPHEMERIS_TYPE": 0, "CLASSIFICATION_TYPE": "U", "NORAD_CAT_ID": 46277, "ELEMENT_SET_NO": 999, "REV_AT_EPOCH": 29501, "BSTAR": 0.00028953075, "MEAN_MOTION_DOT": 0.00011687, "MEAN_MOTION_DDOT": 0}, "tle": {"line1": "1 46277U 20061F   25358.25702844  .00011687  00000+0  28953-3 0  9992", "line2": "2 46277  97.2190  57.2087 0001126  52.7836 307.3513 15.40557215295010"}}, "geometry": {"type": "Point", "coordinates": [40.761739273889674, 66.52771925441681]}}, {"type": "Feature", "properties": {"norad_id": 46984, "name": "SENTINEL-6A", "group": "resource", "lat": -32.77425697280619, "lon": -26.083032615530133, "alt_km": 1339.2290082812515, "timestamp": "2025-12-24T18:55:55.714955+00:00", "meta": {"OBJECT_NAME": "SENTINEL-6A", "OBJECT_ID": "2020-086A", "EPOCH": "2025-12-23T19:19:13.530144", "MEAN_MOTION": 12.80930767, "ECCENTRICITY": 0.00077496, "INCLINATION": 66.0398, "RA_OF_ASC_NODE": 139.3251, "ARG_OF_PERICENTER": 269.3952, "MEAN_ANOMALY": 90.6175, "EPHEMERIS_TYPE": 0, "CLASSIFICATION_TYPE": "U", "NORAD_CAT_ID": 46984, "ELEMENT_SET_NO": 999, "REV_AT_EPOCH": 23786, "BSTAR": -6.596775e-06, "MEAN_MOTION_DOT": -6.3e-07, "MEAN_MOTION_DDOT": 0}, "tle": {"line1": "1 46984U 20086A   25357.80501771 -.00000063  00000+0 -65968-5 0  9997", "line2": "2 46984  66.0398 139.3251 0007749 269.3952  90.6175 12.80930767237869"}}, "geometry": {"type": "Point", "coordinates": [-26.083032615530133, -32.77425697280619]}}, {"type": "Feature", "properties": {"norad_id": 48079, "name": "GAOFEN-12 02", "group": "resource", "lat": 76.1020202537895, "lon": -152.69774467385113, "alt_km": 617.6874577197514, "timestamp": "2025-12-24T18:55:55.714965+00:00", "meta": {"OBJECT_NAME": "GAOFEN-12 02", "OBJECT_ID": "2021-026A", "EPOCH": "2025-12-24T07:07:23.556288", "MEAN_MOTION": 14.80688279, "ECCENTRICITY": 0.0003565, "INCLINATION": 97.9857, "RA_OF_ASC_NODE": 352.2477, "ARG_OF_PERICENTER": 77.9222, "MEAN_ANOMALY": 282.2389, "EPHEMERIS_TYPE": 0, "CLASSIFICATION_TYPE": "U", "NORAD_CAT_ID": 48079, "ELEMENT_SET_NO": 999, "REV_AT_EPOCH": 25588, "BSTAR": 7.1700666e-05, "MEAN_MOTION_DOT": 4.98e-06, "MEAN_MOTION_DDOT": 0}, "tle": {"line1": "1 48079U 21026A   25358.29680042  .00000498  00000+0  71701-4 0  9993", "line2": "2 48079  97.9857 352.2477 0003565  77.9222 282.2389 14.80688279255888"}}, "geometry": {"type": "Point", "coordinates": [-152.69774467385113, 76.1020202537895]}}, {"type": "Feature", "properties": {"norad_id": 48268, "name": "PLEIADES NEO 3", "group": "resource", "lat": -30.94193199096639, "lon": -113.71447690193854, "alt_km": 630.5954171638205, "timestamp": "2025-12-24T18:55:55.714976+00:00", "meta": {"OBJECT_NAME": "PLEIADES NEO 3", "OBJECT_ID": "2021-034A", "EPOCH": "2025-12-24T06:38:11.931936", "MEAN_MOTION": 14.81670394, "ECCENTRICITY": 0.00013101, "INCLINATION": 97.8946, "RA_OF_ASC_NODE": 70.5522, "ARG_OF_PERICENTER": 90.1017, "MEAN_ANOMALY": 270.0345, "EPHEMERIS_TYPE": 0, "CLASSIFICATION_TYPE": "U", "NORAD_CAT_ID": 48268, "ELEMENT_SET_NO": 999, "REV_AT_EPOCH": 25175, "BSTAR": -5.390172e-05, "MEAN_MOTION_DOT": -4.76e-06, "MEAN_MOTION_DDOT": 0}, "tle": {"line1": "1 48268U 21034A   25358.27652699 -.00000476  00000+0 -53902-4 0  9998", "line2": "2 48268  97.8946  70.5522 0001310  90.1017 270.0345 14.81670394251751"}}, "geometry": {"type": "Point", "coordinates": [-113.71447690193854, -30.94193199096639]}}, {"type": "Feature", "properties": {"norad_id": 49070, "name": "PLEIADES NEO 4", "group": "resource", "lat": 30.780607893477338, "lon": 66.31219821166427, "alt_km": 621.947986212368, "timestamp": "2025-12-24T18:55:55.714986+00:00", "meta": {"OBJECT_NAME": "PLEIADES NEO 4", "OBJECT_ID": "2021-073E", "EPOCH": "2025-12-24T05:49:33.460896", "MEAN_MOTION": 14.8167211, "ECCENTRICITY": 0.00013459, "INCLINATION": 97.8946, "RA_OF_ASC_NODE": 70.5151, "ARG_OF_PERICENTER": 92.647, "MEAN_ANOMALY": 267.4897, "EPHEMERIS_TYPE": 0, "CLASSIFICATION_TYPE": "U", "NORAD_CAT_ID": 49070, "ELEMENT_SET_NO": 999, "REV_AT_EPOCH": 23546, "BSTAR": 1.7928738e-05, "MEAN_MOTION_DOT": 8.9e-07, "MEAN_MOTION_DDOT": 0}, "tle": {"line1": "1 49070U 21073E   25358.24274839  .00000089  00000+0  17929-4 0  9993", "line2": "2 49070  97.8946  70.5151 0001345  92.6470 267.4897 14.81672110235469"}}, "geometry": {"type": "Point", "coordinates": [66.31219821166427, 30.780607893477338]}}, {"type": "Feature", "properties": {"norad_id": 49260, "name": "LANDSAT 9", "group": "resource", "lat": 62.76849492859509, "lon": 50.43592541333896, "alt_km": 695.6999181750198, "timestamp": "2025-12-24T18:55:55.714996+00:00", "meta": {"OBJECT_NAME": "LANDSAT 9", "OBJECT_ID": "2021-088A", "EPOCH": "2025-12-24T03:48:25.628544", "MEAN_MOTION": 14.57109202, "ECCENTRICITY": 0.00011048, "INCLINATION": 98.2079, "RA_OF_ASC_NODE": 66.1034, "ARG_OF_PERICENTER": 93.1257, "MEAN_ANOMALY": 267.0068, "EPHEMERIS_TYPE": 0, "CLASSIFICATION_TYPE": "U", "NORAD_CAT_ID": 49260, "ELEMENT_SET_NO": 999, "REV_AT_EPOCH": 22551, "BSTAR": 0.00010495099, "MEAN_MOTION_DOT": 4.28e-06, "MEAN_MOTION_DDOT": 0}, "tle": {"line1": "1 49260U 21088A   25358.15862996  .00000428  00000+0  10495-3 0  9994", "line2": "2 49260  98.2079  66.1034 0001104  93.1257 267.0068 14.57109202225516"}}, "geometry": {"type": "Point", "coordinates": [50.43592541333896, 62.76849492859509]}}, {"type": "Feature", "properties": {"norad_id": 51444, "name": "CSG-2", "group": "resource", "lat": 80.4765938388509, "lon": 124.28072433397925, "alt_km": 614.0823466580514, "timestamp": "2025-12-24T18:55:55.715006+00:00", "meta": {"OBJECT_NAME": "CSG-2", "OBJECT_ID": "2022-008A", "EPOCH": "2025-12-24T07:12:35.964000", "MEAN_MOTION": 14.82153656, "ECCENTRICITY": 0.00014944, "INCLINATION": 97.8803, "RA_OF_ASC_NODE": 179.449, "ARG_OF_PERICENTER": 82.2721, "MEAN_ANOMALY": 277.8662, "EPHEMERIS_TYPE": 0, "CLASSIFICATION_TYPE": "U", "NORAD_CAT_ID": 51444, "ELEMENT_SET_NO": 999, "REV_AT_EPOCH": 21068, "BSTAR": 3.210431e-06, "MEAN_MOTION_DOT": -2.7e-07, "MEAN_MOTION_DDOT": 0}, "tle": {"line1": "1 51444U 22008A   25358.30041625 -.00000027  00000+0  32104-5 0  9998", "line2": "2 51444  97.8803 179.4490 0001494  82.2721 277.8662 14.82153656210685"}}, "geometry": {"type": "Point", "coordinates": [124.28072433397925, 80.4765938388509]}}]}